IRIDIUM 106             
1 41917U 17003A   23294.52237685  .00000055  00000+0  12597-4 0  9998
2 41917  86.3951 133.7971 0001944  92.4245 267.7174 14.34215784354220
IRIDIUM 103             
1 41918U 17003B   23294.50969916  .00000154  00000+0  48041-4 0  9999
2 41918  86.3949 133.7050 0001867  81.4288 278.7119 14.34214989354255
IRIDIUM 109             
1 41919U 17003C   23294.09743565  .00000098  00000+0  27850-4 0  9996
2 41919  86.3953 133.9210 0002258  82.6359 277.5093 14.34214618354176
IRIDIUM 102             
1 41920U 17003D   23293.92615679  .00000022  00000+0  72651-6 0  9991
2 41920  86.3948 133.9368 0002320  85.4803 274.6658 14.34210187354218
IRIDIUM 105             
1 41921U 17003E   23293.96658072  .00000229  00000+0  74854-4 0  9994
2 41921  86.3921 102.3303 0001996  89.3930 270.7495 14.34224745356078
IRIDIUM 104             
1 41922U 17003F   23293.93885800  .00000163  00000+0  51202-4 0  9992
2 41922  86.3951 133.9593 0002068  81.4378 278.7052 14.34214178354202
IRIDIUM 114             
1 41923U 17003G   23293.52659531  .00000493  00000+0  16896-3 0  9993
2 41923  86.3949 134.1198 0002114  81.0949 279.0486 14.34216930354142
IRIDIUM 108             
1 41924U 17003H   23293.97349666  .00000213  00000+0  69034-4 0  9991
2 41924  86.3914 102.2673 0001674  88.5903 271.5484 14.34217744356063
